CCSDS_OMM_VERS = 2.0
CREATION_DATE  = 
ORIGINATOR     = 

OBJECT_NAME    = COSMOS 2058
OBJECT_ID      = 1990-010A
CENTER_NAME    = EARTH
REF_FRAME      = TEME
TIME_SYSTEM    = UTC
MEAN_ELEMENT_THEORY = SGP/SGP4

EPOCH          = 2026-03-06T09:41:33.733824
MEAN_MOTION    = 15.11285256
ECCENTRICITY   = .00096341
INCLINATION    = 82.4670
RA_OF_ASC_NODE = 50.6649
ARG_OF_PERICENTER = 354.4858
MEAN_ANOMALY   = 5.6264

EPHEMERIS_TYPE = 0
CLASSIFICATION_TYPE = U
NORAD_CAT_ID   = 20465
ELEMENT_SET_NO = 999
REV_AT_EPOCH   = 94174
BSTAR          = .30893801E-3
MEAN_MOTION_DOT = .5232E-4
MEAN_MOTION_DDOT = 0

CCSDS_OMM_VERS = 2.0
CREATION_DATE  = 
ORIGINATOR     = 

OBJECT_NAME    = SL-14 R/B
OBJECT_ID      = 1990-010B
CENTER_NAME    = EARTH
REF_FRAME      = TEME
TIME_SYSTEM    = UTC
MEAN_ELEMENT_THEORY = SGP/SGP4

EPOCH          = 2026-03-06T12:24:20.711232
MEAN_MOTION    = 14.83565721
ECCENTRICITY   = .00187296
INCLINATION    = 82.4989
RA_OF_ASC_NODE = 270.3699
ARG_OF_PERICENTER = 313.4741
MEAN_ANOMALY   = 46.4916

EPHEMERIS_TYPE = 0
CLASSIFICATION_TYPE = U
NORAD_CAT_ID   = 20466
ELEMENT_SET_NO = 999
REV_AT_EPOCH   = 92801
BSTAR          = .64085144E-4
MEAN_MOTION_DOT = .553E-5
MEAN_MOTION_DDOT = 0

CCSDS_OMM_VERS = 2.0
CREATION_DATE  = 
ORIGINATOR     = 

OBJECT_NAME    = HST
OBJECT_ID      = 1990-037B
CENTER_NAME    = EARTH
REF_FRAME      = TEME
TIME_SYSTEM    = UTC
MEAN_ELEMENT_THEORY = SGP/SGP4

EPOCH          = 2026-03-06T02:13:50.589696
MEAN_MOTION    = 15.29414630
ECCENTRICITY   = .00017959
INCLINATION    = 28.4707
RA_OF_ASC_NODE = 64.5335
ARG_OF_PERICENTER = 90.2676
MEAN_ANOMALY   = 269.8125

EPHEMERIS_TYPE = 0
CLASSIFICATION_TYPE = U
NORAD_CAT_ID   = 20580
ELEMENT_SET_NO = 999
REV_AT_EPOCH   = 77276
BSTAR          = .27789618E-3
MEAN_MOTION_DOT = .839E-4
MEAN_MOTION_DDOT = 0

CCSDS_OMM_VERS = 2.0
CREATION_DATE  = 
ORIGINATOR     = 

OBJECT_NAME    = SL-16 R/B
OBJECT_ID      = 1990-046B
CENTER_NAME    = EARTH
REF_FRAME      = TEME
TIME_SYSTEM    = UTC
MEAN_ELEMENT_THEORY = SGP/SGP4

EPOCH          = 2026-03-06T15:46:43.057056
MEAN_MOTION    = 14.15013556
ECCENTRICITY   = .00162047
INCLINATION    = 70.9993
RA_OF_ASC_NODE = 304.2832
ARG_OF_PERICENTER = 303.6768
MEAN_ANOMALY   = 56.2809

EPHEMERIS_TYPE = 0
CLASSIFICATION_TYPE = U
NORAD_CAT_ID   = 20625
ELEMENT_SET_NO = 999
REV_AT_EPOCH   = 84796
BSTAR          = -.96456721E-4
MEAN_MOTION_DOT = -.235E-5
MEAN_MOTION_DDOT = 0

CCSDS_OMM_VERS = 2.0
CREATION_DATE  = 
ORIGINATOR     = 

OBJECT_NAME    = COSMOS 2084
OBJECT_ID      = 1990-055A
CENTER_NAME    = EARTH
REF_FRAME      = TEME
TIME_SYSTEM    = UTC
MEAN_ELEMENT_THEORY = SGP/SGP4

EPOCH          = 2026-03-06T03:15:11.772288
MEAN_MOTION    = 15.05624406
ECCENTRICITY   = .00176592
INCLINATION    = 62.7926
RA_OF_ASC_NODE = 347.6992
ARG_OF_PERICENTER = 189.0828
MEAN_ANOMALY   = 170.9956

EPHEMERIS_TYPE = 0
CLASSIFICATION_TYPE = U
NORAD_CAT_ID   = 20663
ELEMENT_SET_NO = 999
REV_AT_EPOCH   = 93578
BSTAR          = .22604387E-3
MEAN_MOTION_DOT = .3086E-4
MEAN_MOTION_DDOT = 0

CCSDS_OMM_VERS = 2.0
CREATION_DATE  = 
ORIGINATOR     = 

OBJECT_NAME    = SL-8 R/B
OBJECT_ID      = 1990-078B
CENTER_NAME    = EARTH
REF_FRAME      = TEME
TIME_SYSTEM    = UTC
MEAN_ELEMENT_THEORY = SGP/SGP4

EPOCH          = 2026-03-06T11:37:39.218880
MEAN_MOTION    = 14.88931597
ECCENTRICITY   = .03629459
INCLINATION    = 82.8999
RA_OF_ASC_NODE = 254.1941
ARG_OF_PERICENTER = 24.7710
MEAN_ANOMALY   = 337.0453

EPHEMERIS_TYPE = 0
CLASSIFICATION_TYPE = U
NORAD_CAT_ID   = 20775
ELEMENT_SET_NO = 999
REV_AT_EPOCH   = 80882
BSTAR          = .49449579E-3
MEAN_MOTION_DOT = .168E-3
MEAN_MOTION_DDOT = 0

CCSDS_OMM_VERS = 2.0
CREATION_DATE  = 
ORIGINATOR     = 

OBJECT_NAME    = SL-8 R/B
OBJECT_ID      = 1991-006B
CENTER_NAME    = EARTH
REF_FRAME      = TEME
TIME_SYSTEM    = UTC
MEAN_ELEMENT_THEORY = SGP/SGP4

EPOCH          = 2026-03-06T13:31:33.637728
MEAN_MOTION    = 13.77493784
ECCENTRICITY   = .00232614
INCLINATION    = 82.9466
RA_OF_ASC_NODE = 172.3698
ARG_OF_PERICENTER = 46.8205
MEAN_ANOMALY   = 324.6837

EPHEMERIS_TYPE = 0
CLASSIFICATION_TYPE = U
NORAD_CAT_ID   = 21088
ELEMENT_SET_NO = 999
REV_AT_EPOCH   = 76364
BSTAR          = .68619974E-4
MEAN_MOTION_DOT = .84E-6
MEAN_MOTION_DDOT = 0

CCSDS_OMM_VERS = 2.0
CREATION_DATE  = 
ORIGINATOR     = 

OBJECT_NAME    = OKEAN-3
OBJECT_ID      = 1991-039A
CENTER_NAME    = EARTH
REF_FRAME      = TEME
TIME_SYSTEM    = UTC
MEAN_ELEMENT_THEORY = SGP/SGP4

EPOCH          = 2026-03-06T14:53:04.752960
MEAN_MOTION    = 15.04777037
ECCENTRICITY   = .00141149
INCLINATION    = 82.5192
RA_OF_ASC_NODE = 339.8166
ARG_OF_PERICENTER = 349.6073
MEAN_ANOMALY   = 10.4860

EPHEMERIS_TYPE = 0
CLASSIFICATION_TYPE = U
NORAD_CAT_ID   = 21397
ELEMENT_SET_NO = 999
REV_AT_EPOCH   = 86457
BSTAR          = .31051406E-3
MEAN_MOTION_DOT = .4415E-4
MEAN_MOTION_DDOT = 0

CCSDS_OMM_VERS = 2.0
CREATION_DATE  = 
ORIGINATOR     = 

OBJECT_NAME    = COSMOS 2151
OBJECT_ID      = 1991-042A
CENTER_NAME    = EARTH
REF_FRAME      = TEME
TIME_SYSTEM    = UTC
MEAN_ELEMENT_THEORY = SGP/SGP4

EPOCH          = 2026-03-06T13:09:29.397888
MEAN_MOTION    = 15.00091439
ECCENTRICITY   = .00140262
INCLINATION    = 82.4929
RA_OF_ASC_NODE = 86.7072
ARG_OF_PERICENTER = 73.1241
MEAN_ANOMALY   = 287.1520

EPHEMERIS_TYPE = 0
CLASSIFICATION_TYPE = U
NORAD_CAT_ID   = 21422
ELEMENT_SET_NO = 999
REV_AT_EPOCH   = 86272
BSTAR          = .19803925E-3
MEAN_MOTION_DOT = .2499E-4
MEAN_MOTION_DDOT = 0

CCSDS_OMM_VERS = 2.0
CREATION_DATE  = 
ORIGINATOR     = 

OBJECT_NAME    = SL-14 R/B
OBJECT_ID      = 1991-042B
CENTER_NAME    = EARTH
REF_FRAME      = TEME
TIME_SYSTEM    = UTC
MEAN_ELEMENT_THEORY = SGP/SGP4

EPOCH          = 2026-03-06T10:46:31.295712
MEAN_MOTION    = 14.81825638
ECCENTRICITY   = .00156542
INCLINATION    = 82.4916
RA_OF_ASC_NODE = 223.2212
ARG_OF_PERICENTER = 250.1694
MEAN_ANOMALY   = 109.7833

EPHEMERIS_TYPE = 0
CLASSIFICATION_TYPE = U
NORAD_CAT_ID   = 21423
ELEMENT_SET_NO = 999
REV_AT_EPOCH   = 85259
BSTAR          = .83986573E-4
MEAN_MOTION_DOT = .687E-5
MEAN_MOTION_DDOT = 0

